1 08820U 76039A   03197.86507479  .00000002  00000-0  10000-3 0  9355
2 08820 109.8019 191.7558 0044552 294.8312  64.7662  6.38664327378951
